sat28278
1 28278U 91068AT  20046.36244421  .00000812  00000-0  31241-2 0  9993
2 28278  82.2821  70.9640 0034783 350.4851  69.2492 12.88514943794938
